NORAD_CAT_ID,OBJECT_NAME,OBJECT_TYPE,EPOCH,MEAN_MOTION,ECCENTRICITY,INCLINATION,RA_OF_ASC_NODE,ARG_OF_PERICENTER,MEAN_ANOMALY,BSTAR,MEAN_MOTION_DOT,MEAN_MOTION_DDOT,TLE_LINE0,TLE_LINE1,TLE_LINE2,SEMIMAJOR_AXIS,PERIOD,APOGEE,PERIGEE,DECAYED
55771.0,STARLINK-5591,PAYLOAD,2024-03-18 11:34:25,14.98327151,0.0002949,69.9999,242.8563,272.5126,87.5695,1.8039e-05,1.22e-06,0.0,0 STARLINK-5591,1 55771U 23028AG  24078.48224027  .00000122  00000-0  18039-4 0  9990,2 55771  69.9999 242.8563 0002949 272.5126  87.5695 14.98327151 58506,6950.202,96.107,574.116,570.017,0.0
55771.0,STARLINK-5591,PAYLOAD,2024-03-18 21:11:13,14.9832808,0.0002944,70.0,241.8463,272.8172,87.2651,2.5685e-05,2.13e-06,0.0,0 STARLINK-5591,1 55771U 23028AG  24078.88279996  .00000213  00000-0  25685-4 0  9995,2 55771  70.0000 241.8463 0002944 272.8172  87.2651 14.98328080 58566,6950.199,96.107,574.11,570.018,0.0
55771.0,STARLINK-5591,PAYLOAD,2024-03-19 11:36:25,14.98336169,0.0002937,70.0001,240.332,271.3933,88.689,3.5617e-05,3.32e-06,0.0,0 STARLINK-5591,1 55771U 23028AG  24079.48363382  .00000332  00000-0  35617-4 0  9993,2 55771  70.0001 240.3320 0002937 271.3933  88.6890 14.98336169 58651,6950.174,96.107,574.08,569.998,0.0
55771.0,STARLINK-5591,PAYLOAD,2024-03-19 21:13:13,14.98339611,0.0002871,70.0,239.3213,268.2303,91.8527,6.863e-05,7.26e-06,0.0,0 STARLINK-5591,1 55771U 23028AG  24079.88418862  .00000726  00000-0  68630-4 0  9999,2 55771  70.0000 239.3213 0002871 268.2303  91.8527 14.98339611 58717,6950.163,96.106,574.024,570.033,0.0
55771.0,STARLINK-5591,PAYLOAD,2024-03-20 10:02:19,14.98334083,0.0002466,70.0012,237.9755,243.2611,116.8296,-0.00013103,-1.656e-05,0.0,0 STARLINK-5591,1 55771U 23028AG  24080.41827753 -.00001656  00000-0 -13103-3 0  9992,2 55771  70.0012 237.9755 0002466 243.2611 116.8296 14.98334083 58797,6950.18,96.107,573.759,570.331,0.0
55771.0,STARLINK-5591,PAYLOAD,2024-03-20 13:14:35,14.98324199,0.0002935,70.0013,237.638,257.5348,102.5482,-7.9485e-05,-1.041e-05,0.0,0 STARLINK-5591,1 55771U 23028AG  24080.55180181 -.00001041  00000-0 -79485-4 0  9998,2 55771  70.0013 237.6380 0002935 257.5348 102.5482 14.98324199 58814,6950.211,96.107,574.116,570.036,0.0
55771.0,STARLINK-5591,PAYLOAD,2024-03-20 19:39:08,14.98320437,0.0002692,70.0006,236.9653,254.4277,105.6585,-4.9181e-05,-6.8e-06,0.0,0 STARLINK-5591,1 55771U 23028AG  24080.81884468 -.00000680  00000-0 -49181-4 0  9994,2 55771  70.0006 236.9653 0002692 254.4277 105.6585 14.98320437 58851,6950.222,96.108,573.958,570.216,0.0
55771.0,STARLINK-5591,PAYLOAD,2024-03-21 13:16:36,14.98336056,0.0002881,70.0001,235.1133,266.6405,93.4425,-2.6437e-05,-4.08e-06,0.0,0 STARLINK-5591,1 55771U 23028AG  24081.55319526 -.00000408  00000-0 -26437-4 0  9991,2 55771  70.0001 235.1133 0002881 266.6405  93.4425 14.98336056 58961,6950.174,96.107,574.042,570.037,0.0
55771.0,STARLINK-5591,PAYLOAD,2024-03-21 14:52:44,14.98336228,0.0002876,70.0001,234.945,266.6866,93.3964,-2.2017e-05,-3.56e-06,0.0,0 STARLINK-5591,1 55771U 23028AG  24081.61995484 -.00000356  00000-0 -22017-4 0  9993,2 55771  70.0001 234.9450 0002876 266.6866  93.3964 14.98336228 58974,6950.174,96.107,574.038,570.04,0.0
55771.0,STARLINK-5591,PAYLOAD,2024-03-21 19:41:07,14.9834095,0.0003001,69.9998,234.4397,267.9888,92.0927,4.4239e-05,4.35e-06,0.0,0 STARLINK-5591,1 55771U 23028AG  24081.82022908  .00000435  00000-0  44239-4 0  9994,2 55771  69.9998 234.4397 0003001 267.9888  92.0927 14.98340950 59007,6950.159,96.106,574.11,569.938,0.0
55771.0,STARLINK-5591,PAYLOAD,2024-03-22 14:54:44,14.98331231,0.0002932,70.0001,232.4206,267.4142,92.6682,0.00014119,1.592e-05,0.0,0 STARLINK-5591,1 55771U 23028AG  24082.62135063  .00001592  00000-0  14119-3 0  9998,2 55771  70.0001 232.4206 0002932 267.4142  92.6682 14.98331231 59121,6950.189,96.107,574.092,570.016,0.0
55771.0,STARLINK-5591,PAYLOAD,2024-03-22 19:43:08,14.98333694,0.0002915,70.0002,231.9158,267.3131,92.7694,0.00015954,1.811e-05,0.0,0 STARLINK-5591,1 55771U 23028AG  24082.82162820  .00001811  00000-0  15954-3 0  9993,2 55771  70.0002 231.9158 0002915 267.3131  92.7694 14.98333694 59152,6950.181,96.107,574.072,570.02,0.0
55771.0,STARLINK-5591,PAYLOAD,2024-03-23 11:44:30,14.98304452,0.000269,70.0013,230.2337,257.195,102.8908,0.0002285,2.633e-05,0.0,0 STARLINK-5591,1 55771U 23028AG  24083.48924663  .00002633  00000-0  22850-3 0  9993,2 55771  70.0013 230.2337 0002690 257.1950 102.8908 14.98304452 59253,6950.272,96.109,574.007,570.267,0.0
55771.0,STARLINK-5591,PAYLOAD,2024-03-23 19:45:10,14.98326364,0.0002459,70.0014,229.3929,252.9377,107.1513,-7.1201e-05,-9.42e-06,0.0,0 STARLINK-5591,1 55771U 23028AG  24083.82304093 -.00000942  00000-0 -71201-4 0  9998,2 55771  70.0014 229.3929 0002459 252.9377 107.1513 14.98326364 59301,6950.204,96.107,573.778,570.36,0.0
55771.0,STARLINK-5591,PAYLOAD,2024-03-24 13:22:38,14.98337213,0.0002469,70.0013,227.5407,257.1601,102.9283,3.3976e-05,3.13e-06,0.0,0 STARLINK-5591,1 55771U 23028AG  24084.55739028  .00000313  00000-0  33976-4 0  9996,2 55771  70.0013 227.5407 0002469 257.1601 102.9283 14.98337213 59413,6950.171,96.107,573.752,570.32,0.0
55771.0,STARLINK-5591,PAYLOAD,2024-03-24 14:58:46,14.98337448,0.0002462,70.0013,227.3724,257.1126,102.9758,3.7821e-05,3.58e-06,0.0,0 STARLINK-5591,1 55771U 23028AG  24084.62414982  .00000358  00000-0  37821-4 0  9995,2 55771  70.0013 227.3724 0002462 257.1126 102.9758 14.98337448 59426,6950.17,96.107,573.746,570.324,0.0
55771.0,STARLINK-5591,PAYLOAD,2024-03-24 19:47:10,14.98344137,0.0002434,70.0014,226.8677,254.3024,105.7867,0.0001162,1.294e-05,0.0,0 STARLINK-5591,1 55771U 23028AG  24084.82442314  .00001294  00000-0  11620-3 0  9995,2 55771  70.0014 226.8677 0002434 254.3024 105.7867 14.98344137 59451,6950.149,96.106,573.706,570.323,0.0
55771.0,STARLINK-5591,PAYLOAD,2024-03-25 13:24:39,14.98329241,0.0002362,70.0024,225.0188,231.4885,128.6063,0.00012397,1.387e-05,0.0,0 STARLINK-5591,1 55771U 23028AG  24085.55879018  .00001387  00000-0  12397-3 0  9996,2 55771  70.0024 225.0188 0002362 231.4885 128.6063 14.98329241 59564,6950.195,96.107,573.702,570.419,0.0
55771.0,STARLINK-5591,PAYLOAD,2024-03-25 19:49:11,14.98331819,0.0002631,70.0008,224.3418,266.5086,93.5772,0.00011563,1.287e-05,0.0,0 STARLINK-5591,1 55771U 23028AG  24085.82582974  .00001287  00000-0  11563-3 0  9991,2 55771  70.0008 224.3418 0002631 266.5086  93.5772 14.98331819 59601,6950.187,96.107,573.881,570.224,0.0
55771.0,STARLINK-5591,PAYLOAD,2024-03-26 15:02:48,14.98333419,0.0002743,70.0005,222.3216,267.0719,93.0126,-8.1832e-05,-1.069e-05,0.0,0 STARLINK-5591,1 55771U 23028AG  24086.62695199 -.00001069  00000-0 -81832-4 0  9991,2 55771  70.0005 222.3216 0002743 267.0719  93.0126 14.98333419 59724,6950.182,96.107,573.954,570.141,0.0
55771.0,STARLINK-5591,PAYLOAD,2024-03-26 18:15:04,14.98331721,0.0002734,70.0008,221.9852,265.7132,94.3714,-8.9859e-05,-1.165e-05,0.0,0 STARLINK-5591,1 55771U 23028AG  24086.76047301 -.00001165  00000-0 -89859-4 0  9996,2 55771  70.0008 221.9852 0002734 265.7132  94.3714 14.98331721 59745,6950.188,96.107,573.953,570.152,0.0
55771.0,STARLINK-5591,PAYLOAD,2024-03-27 11:52:34,14.98319829,0.000294,70.0006,220.1333,273.2839,86.7984,-9.4093e-05,-1.215e-05,0.0,0 STARLINK-5591,1 55771U 23028AG  24087.49484164 -.00001215  00000-0 -94093-4 0  9991,2 55771  70.0006 220.1333 0002940 273.2839  86.7984 14.98319829 59856,6950.224,96.108,574.133,570.046,0.0
55771.0,STARLINK-5591,PAYLOAD,2024-03-27 15:04:50,14.9832188,0.0002635,70.0015,219.7984,262.9174,97.1686,-5.2618e-05,-7.21e-06,0.0,0 STARLINK-5591,1 55771U 23028AG  24087.62836071 -.00000721  00000-0 -52618-4 0  9992,2 55771  70.0015 219.7984 0002635 262.9174  97.1686 14.98321880 59877,6950.218,96.108,573.914,570.252,0.0
55771.0,STARLINK-5591,PAYLOAD,2024-03-27 18:17:06,14.9831967,0.000275,70.0015,219.4607,268.5713,91.5131,-5.7805e-05,-7.82e-06,0.0,0 STARLINK-5591,1 55771U 23028AG  24087.76188278 -.00000782  00000-0 -57805-4 0  9996,2 55771  70.0015 219.4607 0002750 268.5713  91.5131 14.98319670 59894,6950.225,96.108,574.001,570.179,0.0
55771.0,STARLINK-5591,PAYLOAD,2024-03-28 02:17:46,14.98329874,0.0003268,70.0005,218.6171,270.394,89.6845,-8.7993e-05,-1.143e-05,0.0,0 STARLINK-5591,1 55771U 23028AG  24088.09567592 -.00001143  00000-0 -87993-4 0  9996,2 55771  70.0005 218.6171 0003268 270.3940  89.6845 14.98329874 59941,6950.193,96.107,574.33,569.787,0.0
55771.0,STARLINK-5591,PAYLOAD,2024-03-28 15:06:50,14.98331653,0.0003277,70.0003,217.2718,270.1582,89.9202,9.1896e-05,1.004e-05,0.0,0 STARLINK-5591,1 55771U 23028AG  24088.62975145  .00001004  00000-0  91896-4 0  9993,2 55771  70.0003 217.2718 0003277 270.1582  89.9202 14.98331653 60020,6950.188,96.107,574.33,569.775,0.0
55771.0,STARLINK-5591,PAYLOAD,2024-03-29 11:56:35,14.98314238,0.0003623,70.0003,215.0838,267.1255,92.949,0.00029266,3.399e-05,0.0,0 STARLINK-5591,1 55771U 23028AG  24089.49763768  .00003399  00000-0  29266-3 0  9995,2 55771  70.0003 215.0838 0003623 267.1255  92.9490 14.98314238 60154,6950.242,96.108,574.625,569.589,0.0
55771.0,STARLINK-5591,PAYLOAD,2024-03-29 15:08:51,14.98327956,0.000331,70.0005,214.7476,269.7569,90.3211,0.00011913,1.329e-05,0.0,0 STARLINK-5591,1 55771U 23028AG  24089.63115452  .00001329  00000-0  11913-3 0  9993,2 55771  70.0005 214.7476 0003310 269.7569  90.3211 14.98327956 60175,6950.199,96.107,574.365,569.764,0.0
55771.0,STARLINK-5591,PAYLOAD,2024-03-29 18:21:07,14.98329966,0.0003078,70.0003,214.4104,266.0365,94.0442,0.00017304,1.972e-05,0.0,0 STARLINK-5591,1 55771U 23028AG  24089.76467176  .00001972  00000-0  17304-3 0  9994,2 55771  70.0003 214.4104 0003078 266.0365  94.0442 14.98329966 60195,6950.193,96.107,574.197,569.919,0.0
55771.0,STARLINK-5591,PAYLOAD,2024-03-30 15:10:52,14.98332111,0.0002859,70.0006,212.2229,267.7655,92.3177,-1.2151e-05,-2.38e-06,0.0,0 STARLINK-5591,1 55771U 23028AG  24090.63255509 -.00000238  00000-0 -12151-4 0  9999,2 55771  70.0006 212.2229 0002859 267.7655  92.3177 14.98332111 60325,6950.186,96.107,574.038,570.064,0.0
